SENTINEL-6A             
1 46984U 20086A   26188.15099898 -.00000046  00000+0  66482-4 0  9991
2 46984  66.0416  93.5889 0007835 270.0365  89.9753 12.80930149262888
SENTINEL-6B             
1 66514U 25264A   26188.15134700 -.00000049  00000+0  50778-4 0  9991
2 66514  66.0415  93.7141 0007890 268.8438  91.1673 12.80930114 29720
